ONEWEB-0549             
1 56051U 23043F   25307.66617073  .00000163  00000+0  36321-3 0  9999
2 56051  87.9169 288.9784 0002188  89.1330 271.0055 13.21824758128437
ONEWEB-0550             
1 56052U 23043G   25307.65302844  .00000866  00000+0  20656-2 0  9999
2 56052  87.9170 288.9756 0001774  86.4347 273.6990 13.21822202128435
ONEWEB-0551             
1 56053U 23043H   25306.42834278  .00000075  00000+0  16629-3 0  9993
2 56053  87.8955 304.4865 0002109  95.1629 264.9742 13.15548923126584
ONEWEB-0552             
1 56054U 23043J   25307.64807983  .00000093  00000+0  19390-3 0  9990
2 56054  87.9170 288.9855 0002032  94.3295 265.8071 13.21829920128432
ONEWEB-0553             
1 56055U 23043K   25306.40700108 -.00000001  00000+0 -35309-4 0  9995
2 56055  87.8996 273.9431 0001803  73.1263 287.0065 13.16596477129136
ONEWEB-0554             
1 56056U 23043L   25307.61028337  .00000064  00000+0  13505-3 0  9997
2 56056  87.8983 273.7222 0001642  85.9886 274.1432 13.16593501129277
ONEWEB-0555             
1 56057U 23043M   25307.64827446 -.00000017  00000+0 -79373-4 0  9995
2 56057  87.8994 273.6902 0001761  66.7355 293.3961 13.16595218129282
ONEWEB-0557             
1 56058U 23043N   25306.44657392  .00000103  00000+0  23558-3 0  9991
2 56058  87.8991 273.9445 0000768  54.6696 305.4507 13.16592232129122
